{"type": "FeatureCollection", "features": [ {"type": "Feature", "properties": {"norad_id": 31480, "name": "FENGYUN 1C DEB", "group": "fengyun-1c-debris", "lat": 20.141465484143897, "lon": 13.798075359589735, "alt_km": 894.8724786647508, "timestamp": "2025-12-04T17:48:40.448498+00:00", "meta": {"OBJECT_NAME": "FENGYUN 1C DEB", "OBJECT_ID": "1999-025BVU", "EPOCH": "2025-12-03T01:16:02.255232", "MEAN_MOTION": 13.89712838, "ECCENTRICITY": 0.03465904, "INCLINATION": 98.3377, "RA_OF_ASC_NODE": 189.1974, "ARG_OF_PERICENTER": 248.3313, "MEAN_ANOMALY": 108.0609, "EPHEMERIS_TYPE": 0, "CLASSIFICATION_TYPE": "U", "NORAD_CAT_ID": 31480, "ELEMENT_SET_NO": 999, "REV_AT_EPOCH": 93261, "BSTAR": 0.0047376681, "MEAN_MOTION_DOT": 9.4e-05, "MEAN_MOTION_DDOT": 0}, "tle": {"line1": "1 31480U 99025BVU 25337.05280388  .00009400  00000+0  47377-2 0  9997", "line2": "2 31480  98.3377 189.1974 0346590 248.3313 108.0609 13.89712838932610"}}, "geometry": {"type": "Point", "coordinates": [13.798075359589735, 20.141465484143897]}}, {"type": "Feature", "properties": {"norad_id": 31482, "name": "FENGYUN 1C DEB", "group": "fengyun-1c-debris", "lat": -5.349449262745886, "lon": -16.3869208542199, "alt_km": 733.9917441582284, "timestamp": "2025-12-04T17:48:40.448512+00:00", "meta": {"OBJECT_NAME": "FENGYUN 1C DEB", "OBJECT_ID": "1999-025BVW", "EPOCH": "2025-12-03T06:47:16.506816", "MEAN_MOTION": 14.35585898, "ECCENTRICITY": 0.0089088, "INCLINATION": 98.382, "RA_OF_ASC_NODE": 341.4038, "ARG_OF_PERICENTER": 310.7779, "MEAN_ANOMALY": 65.6558, "EPHEMERIS_TYPE": 0, "CLASSIFICATION_TYPE": "U", "NORAD_CAT_ID": 31482, "ELEMENT_SET_NO": 999, "REV_AT_EPOCH": 96994, "BSTAR": 0.0011353, "MEAN_MOTION_DOT": 3.379e-05, "MEAN_MOTION_DDOT": 0}, "tle": {"line1": "1 31482U 99025BVW 25337.28282994  .00003379  00000+0  11353-2 0  9993", "line2": "2 31482  98.3820 341.4038 0089088 310.7779  65.6558 14.35585898969948"}}, "geometry": {"type": "Point", "coordinates": [-16.3869208542199, -5.349449262745886]}}, {"type": "Feature", "properties": {"norad_id": 31483, "name": "FENGYUN 1C DEB", "group": "fengyun-1c-debris", "lat": 44.53957818955044, "lon": -86.78654117694327, "alt_km": 918.5177875792579, "timestamp": "2025-12-04T17:48:40.448522+00:00", "meta": {"OBJECT_NAME": "FENGYUN 1C DEB", "OBJECT_ID": "1999-025BVX", "EPOCH": "2025-12-04T02:25:35.826240", "MEAN_MOTION": 14.15855411, "ECCENTRICITY": 0.01194506, "INCLINATION": 102.5016, "RA_OF_ASC_NODE": 284.9283, "ARG_OF_PERICENTER": 242.735, "MEAN_ANOMALY": 137.1159, "EPHEMERIS_TYPE": 0, "CLASSIFICATION_TYPE": "U", "NORAD_CAT_ID": 31483, "ELEMENT_SET_NO": 999, "REV_AT_EPOCH": 94584, "BSTAR": 0.005815133, "MEAN_MOTION_DOT": 0.00012209, "MEAN_MOTION_DDOT": 0}, "tle": {"line1": "1 31483U 99025BVX 25338.10110910  .00012209  00000+0  58151-2 0  9993", "line2": "2 31483 102.5016 284.9283 0119450 242.7350 137.1159 14.15855411945847"}}, "geometry": {"type": "Point", "coordinates": [-86.78654117694327, 44.53957818955044]}}, {"type": "Feature", "properties": {"norad_id": 31484, "name": "FENGYUN 1C DEB", "group": "fengyun-1c-debris", "lat": 14.225069880279023, "lon": 94.99387289652913, "alt_km": 668.6027780102977, "timestamp": "2025-12-04T17:48:40.448532+00:00", "meta": {"OBJECT_NAME": "FENGYUN 1C DEB", "OBJECT_ID": "1999-025BVY", "EPOCH": "2025-12-04T02:08:44.405376", "MEAN_MOTION": 14.49883336, "ECCENTRICITY": 0.00826208, "INCLINATION": 101.8049, "RA_OF_ASC_NODE": 271.0436, "ARG_OF_PERICENTER": 175.5748, "MEAN_ANOMALY": 184.6182, "EPHEMERIS_TYPE": 0, "CLASSIFICATION_TYPE": "U", "NORAD_CAT_ID": 31484, "ELEMENT_SET_NO": 999, "REV_AT_EPOCH": 64112, "BSTAR": 0.011456506, "MEAN_MOTION_DOT": 0.00046489, "MEAN_MOTION_DDOT": 0}, "tle": {"line1": "1 31484U 99025BVY 25338.08940284  .00046489  00000+0  11457-1 0  9990", "line2": "2 31484 101.8049 271.0436 0082620 175.5748 184.6182 14.49883336641126"}}, "geometry": {"type": "Point", "coordinates": [94.99387289652913, 14.225069880279023]}}, {"type": "Feature", "properties": {"norad_id": 31485, "name": "FENGYUN 1C DEB", "group": "fengyun-1c-debris", "lat": -1.3479521852549292, "lon": -16.377414142727638, "alt_km": 1411.3844288139826, "timestamp": "2025-12-04T17:48:40.448542+00:00", "meta": {"OBJECT_NAME": "FENGYUN 1C DEB", "OBJECT_ID": "1999-025BVZ", "EPOCH": "2025-12-02T18:18:04.263840", "MEAN_MOTION": 13.39966891, "ECCENTRICITY": 0.044543, "INCLINATION": 102.7192, "RA_OF_ASC_NODE": 161.4429, "ARG_OF_PERICENTER": 340.4326, "MEAN_ANOMALY": 18.0159, "EPHEMERIS_TYPE": 0, "CLASSIFICATION_TYPE": "U", "NORAD_CAT_ID": 31485, "ELEMENT_SET_NO": 999, "REV_AT_EPOCH": 90311, "BSTAR": 0.0039439887, "MEAN_MOTION_DOT": 3.774e-05, "MEAN_MOTION_DDOT": 0}, "tle": {"line1": "1 31485U 99025BVZ 25336.76254935  .00003774  00000+0  39440-2 0  9998", "line2": "2 31485 102.7192 161.4429 0445430 340.4326  18.0159 13.39966891903117"}}, "geometry": {"type": "Point", "coordinates": [-16.377414142727638, -1.3479521852549292]}}, {"type": "Feature", "properties": {"norad_id": 31487, "name": "FENGYUN 1C DEB", "group": "fengyun-1c-debris", "lat": 76.35662502591393, "lon": 79.27629898101206, "alt_km": 935.7022629523417, "timestamp": "2025-12-04T17:48:40.448555+00:00", "meta": {"OBJECT_NAME": "FENGYUN 1C DEB", "OBJECT_ID": "1999-025BWB", "EPOCH": "2025-12-02T06:08:26.132064", "MEAN_MOTION": 13.97663121, "ECCENTRICITY": 0.0119744, "INCLINATION": 102.4135, "RA_OF_ASC_NODE": 141.0753, "ARG_OF_PERICENTER": 331.4925, "MEAN_ANOMALY": 207.6466, "EPHEMERIS_TYPE": 0, "CLASSIFICATION_TYPE": "U", "NORAD_CAT_ID": 31487, "ELEMENT_SET_NO": 999, "REV_AT_EPOCH": 94265, "BSTAR": 0.0016318, "MEAN_MOTION_DOT": 2.376e-05, "MEAN_MOTION_DDOT": 0}, "tle": {"line1": "1 31487U 99025BWB 25336.25585801  .00002376  00000+0  16318-2 0  9999", "line2": "2 31487 102.4135 141.0753 0119744 331.4925 207.6466 13.97663121942651"}}, "geometry": {"type": "Point", "coordinates": [79.27629898101206, 76.35662502591393]}}, {"type": "Feature", "properties": {"norad_id": 31491, "name": "FENGYUN 1C DEB", "group": "fengyun-1c-debris", "lat": 79.45892235373996, "lon": -174.7613242338644, "alt_km": 862.1724744914482, "timestamp": "2025-12-04T17:48:40.448567+00:00", "meta": {"OBJECT_NAME": "FENGYUN 1C DEB", "OBJECT_ID": "1999-025BWE", "EPOCH": "2025-11-29T05:14:19.576896", "MEAN_MOTION": 14.17099923, "ECCENTRICITY": 0.00534374, "INCLINATION": 99.302, "RA_OF_ASC_NODE": 241.2001, "ARG_OF_PERICENTER": 306.7475, "MEAN_ANOMALY": 52.8798, "EPHEMERIS_TYPE": 0, "CLASSIFICATION_TYPE": "U", "NORAD_CAT_ID": 31491, "ELEMENT_SET_NO": 999, "REV_AT_EPOCH": 63536, "BSTAR": 0.0019103725, "MEAN_MOTION_DOT": 3.854e-05, "MEAN_MOTION_DDOT": 0}, "tle": {"line1": "1 31491U 99025BWE 25333.21828214  .00003854  00000+0  19104-2 0  9993", "line2": "2 31491  99.3020 241.2001 0053437 306.7475  52.8798 14.17099923635364"}}, "geometry": {"type": "Point", "coordinates": [-174.7613242338644, 79.45892235373996]}}, {"type": "Feature", "properties": {"norad_id": 31492, "name": "FENGYUN 1C DEB", "group": "fengyun-1c-debris", "lat": -62.466184114754356, "lon": -53.3310338742657, "alt_km": 706.6496988237968, "timestamp": "2025-12-04T17:48:40.448578+00:00", "meta": {"OBJECT_NAME": "FENGYUN 1C DEB", "OBJECT_ID": "1999-025BWF", "EPOCH": "2025-11-30T16:19:50.588832", "MEAN_MOTION": 14.70037284, "ECCENTRICITY": 0.00642617, "INCLINATION": 98.8558, "RA_OF_ASC_NODE": 139.6647, "ARG_OF_PERICENTER": 46.3479, "MEAN_ANOMALY": 314.3027, "EPHEMERIS_TYPE": 0, "CLASSIFICATION_TYPE": "U", "NORAD_CAT_ID": 31492, "ELEMENT_SET_NO": 999, "REV_AT_EPOCH": 96329, "BSTAR": 0.0030343762, "MEAN_MOTION_DOT": 0.00018787, "MEAN_MOTION_DDOT": 0}, "tle": {"line1": "1 31492U 99025BWF 25334.68044663  .00018787  00000+0  30344-2 0  9994", "line2": "2 31492  98.8558 139.6647 0064261  46.3479 314.3027 14.70037284963297"}}, "geometry": {"type": "Point", "coordinates": [-53.3310338742657, -62.466184114754356]}}, {"type": "Feature", "properties": {"norad_id": 31493, "name": "FENGYUN 1C DEB", "group": "fengyun-1c-debris", "lat": -79.81334479784437, "lon": 19.357652665346286, "alt_km": 898.4022143018447, "timestamp": "2025-12-04T17:48:40.448588+00:00", "meta": {"OBJECT_NAME": "FENGYUN 1C DEB", "OBJECT_ID": "1999-025BWG", "EPOCH": "2025-12-02T16:15:30.729600", "MEAN_MOTION": 13.92937252, "ECCENTRICITY": 0.01169898, "INCLINATION": 100.135, "RA_OF_ASC_NODE": 281.6254, "ARG_OF_PERICENTER": 202.4097, "MEAN_ANOMALY": 157.1925, "EPHEMERIS_TYPE": 0, "CLASSIFICATION_TYPE": "U", "NORAD_CAT_ID": 31493, "ELEMENT_SET_NO": 999, "REV_AT_EPOCH": 59726, "BSTAR": 0.00081568072, "MEAN_MOTION_DOT": 1.068e-05, "MEAN_MOTION_DDOT": 0}, "tle": {"line1": "1 31493U 99025BWG 25336.67743900  .00001068  00000+0  81568-3 0  9995", "line2": "2 31493 100.1350 281.6254 0116989 202.4097 157.1925 13.92937252597260"}}, "geometry": {"type": "Point", "coordinates": [19.357652665346286, -79.81334479784437]}}, {"type": "Feature", "properties": {"norad_id": 31495, "name": "FENGYUN 1C DEB", "group": "fengyun-1c-debris", "lat": 44.32909729415751, "lon": 40.57540206376475, "alt_km": 784.0953063308416, "timestamp": "2025-12-04T17:48:40.448598+00:00", "meta": {"OBJECT_NAME": "FENGYUN 1C DEB", "OBJECT_ID": "1999-025BWJ", "EPOCH": "2025-11-29T09:28:29.855136", "MEAN_MOTION": 14.2907414, "ECCENTRICITY": 0.00253264, "INCLINATION": 99.1199, "RA_OF_ASC_NODE": 205.9571, "ARG_OF_PERICENTER": 218.4335, "MEAN_ANOMALY": 141.5042, "EPHEMERIS_TYPE": 0, "CLASSIFICATION_TYPE": "U", "NORAD_CAT_ID": 31495, "ELEMENT_SET_NO": 999, "REV_AT_EPOCH": 63200, "BSTAR": 0.0012827316, "MEAN_MOTION_DOT": 3.214e-05, "MEAN_MOTION_DDOT": 0}, "tle": {"line1": "1 31495U 99025BWJ 25333.39478999  .00003214  00000+0  12827-2 0  9992", "line2": "2 31495  99.1199 205.9571 0025326 218.4335 141.5042 14.29074140632005"}}, "geometry": {"type": "Point", "coordinates": [40.57540206376475, 44.32909729415751]}}]}